[{"OBJECT_NAME":"JILIN-1 06","OBJECT_ID":"2017-074C","EPOCH":"2026-03-09T22:46:57.173376","MEAN_MOTION":15.32444387,"ECCENTRICITY":0.00061285,"INCLINATION":97.4715,"RA_OF_ASC_NODE":171.0354,"ARG_OF_PERICENTER":223.0031,"MEAN_ANOMALY":137.0732,"EPHEMERIS_TYPE":0,"CLASSIFICATION_TYPE":"U","NORAD_CAT_ID":43024,"ELEMENT_SET_NO":999,"REV_AT_EPOCH":45863,"BSTAR":0.00028431628,"MEAN_MOTION_DOT":8.833e-5,"MEAN_MOTION_DDOT":0},{"OBJECT_NAME":"STARLINK-33741","OBJECT_ID":"2025-063C","EPOCH":"2026-03-09T22:22:49.256256","MEAN_MOTION":15.30211764,"ECCENTRICITY":0.00015811,"INCLINATION":53.1612,"RA_OF_ASC_NODE":51.5514,"ARG_OF_PERICENTER":84.6229,"MEAN_ANOMALY":275.4952,"EPHEMERIS_TYPE":0,"CLASSIFICATION_TYPE":"U","NORAD_CAT_ID":63365,"ELEMENT_SET_NO":999,"REV_AT_EPOCH":5479,"BSTAR":0.00098247916,"MEAN_MOTION_DOT":0.00028863,"MEAN_MOTION_DDOT":0}]
